{"fetched_at":"2026-03-29T16:36:15Z","count":15609,"tles":[{"name":"STARLINK-35441","line1":"1 65869U 25223R   26087.70482377 -.00015053  00000+0 -49713-3 0  9991","line2":"2 65869  53.1590 206.0855 0000753 102.5655 257.5430 15.30200109 27112","category":"Starlink"}]}